CCSDS_OMM_VERS = 2.0
CREATION_DATE  = 
ORIGINATOR     = 

OBJECT_NAME    = COSMOS 1933
OBJECT_ID      = 1988-020A
CENTER_NAME    = EARTH
REF_FRAME      = TEME
TIME_SYSTEM    = UTC
MEAN_ELEMENT_THEORY = SGP/SGP4

EPOCH          = 2026-01-30T05:21:21.729888
MEAN_MOTION    = 15.17642535
ECCENTRICITY   = .00041287
INCLINATION    = 82.5142
RA_OF_ASC_NODE = 288.9639
ARG_OF_PERICENTER = 358.2272
MEAN_ANOMALY   = 1.8946

EPHEMERIS_TYPE = 0
CLASSIFICATION_TYPE = U
NORAD_CAT_ID   = 18958
ELEMENT_SET_NO = 999
REV_AT_EPOCH   = 4439
BSTAR          = .28198055E-3
MEAN_MOTION_DOT = .5704E-4
MEAN_MOTION_DDOT = 0

CCSDS_OMM_VERS = 2.0
CREATION_DATE  = 
ORIGINATOR     = 

OBJECT_NAME    = SL-3 R/B
OBJECT_ID      = 1988-032B
CENTER_NAME    = EARTH
REF_FRAME      = TEME
TIME_SYSTEM    = UTC
MEAN_ELEMENT_THEORY = SGP/SGP4

EPOCH          = 2026-01-30T05:05:55.000032
MEAN_MOTION    = 15.19389203
ECCENTRICITY   = .00266776
INCLINATION    = 97.5129
RA_OF_ASC_NODE = 13.6324
ARG_OF_PERICENTER = 12.5846
MEAN_ANOMALY   = 347.6049

EPHEMERIS_TYPE = 0
CLASSIFICATION_TYPE = U
NORAD_CAT_ID   = 19046
ELEMENT_SET_NO = 999
REV_AT_EPOCH   = 4626
BSTAR          = .39476551E-3
MEAN_MOTION_DOT = .8365E-4
MEAN_MOTION_DDOT = 0

CCSDS_OMM_VERS = 2.0
CREATION_DATE  = 
ORIGINATOR     = 

OBJECT_NAME    = SL-16 R/B
OBJECT_ID      = 1988-039B
CENTER_NAME    = EARTH
REF_FRAME      = TEME
TIME_SYSTEM    = UTC
MEAN_ELEMENT_THEORY = SGP/SGP4

EPOCH          = 2026-01-30T07:06:35.129952
MEAN_MOTION    = 14.19609809
ECCENTRICITY   = .00204666
INCLINATION    = 71.0151
RA_OF_ASC_NODE = 149.7315
ARG_OF_PERICENTER = 33.7742
MEAN_ANOMALY   = 326.4682

EPHEMERIS_TYPE = 0
CLASSIFICATION_TYPE = U
NORAD_CAT_ID   = 19120
ELEMENT_SET_NO = 999
REV_AT_EPOCH   = 95293
BSTAR          = .10532482E-3
MEAN_MOTION_DOT = .175E-5
MEAN_MOTION_DDOT = 0

CCSDS_OMM_VERS = 2.0
CREATION_DATE  = 
ORIGINATOR     = 

OBJECT_NAME    = COSMOS 1953
OBJECT_ID      = 1988-050A
CENTER_NAME    = EARTH
REF_FRAME      = TEME
TIME_SYSTEM    = UTC
MEAN_ELEMENT_THEORY = SGP/SGP4

EPOCH          = 2026-01-30T04:30:34.031232
MEAN_MOTION    = 15.27714395
ECCENTRICITY   = .00103697
INCLINATION    = 82.5074
RA_OF_ASC_NODE = 196.9404
ARG_OF_PERICENTER = 259.2480
MEAN_ANOMALY   = 100.7592

EPHEMERIS_TYPE = 0
CLASSIFICATION_TYPE = U
NORAD_CAT_ID   = 19210
ELEMENT_SET_NO = 999
REV_AT_EPOCH   = 3190
BSTAR          = .46335688E-3
MEAN_MOTION_DOT = .12601E-3
MEAN_MOTION_DDOT = 0

CCSDS_OMM_VERS = 2.0
CREATION_DATE  = 
ORIGINATOR     = 

OBJECT_NAME    = SL-8 R/B
OBJECT_ID      = 1988-053B
CENTER_NAME    = EARTH
REF_FRAME      = TEME
TIME_SYSTEM    = UTC
MEAN_ELEMENT_THEORY = SGP/SGP4

EPOCH          = 2026-01-29T20:54:40.523904
MEAN_MOTION    = 14.38891245
ECCENTRICITY   = .00199386
INCLINATION    = 74.0470
RA_OF_ASC_NODE = 184.0104
ARG_OF_PERICENTER = 11.0686
MEAN_ANOMALY   = 101.7503

EPHEMERIS_TYPE = 0
CLASSIFICATION_TYPE = U
NORAD_CAT_ID   = 19257
ELEMENT_SET_NO = 999
REV_AT_EPOCH   = 97101
BSTAR          = .11975849E-3
MEAN_MOTION_DOT = .343E-5
MEAN_MOTION_DDOT = 0

CCSDS_OMM_VERS = 2.0
CREATION_DATE  = 
ORIGINATOR     = 

OBJECT_NAME    = COSMOS 1975
OBJECT_ID      = 1988-093A
CENTER_NAME    = EARTH
REF_FRAME      = TEME
TIME_SYSTEM    = UTC
MEAN_ELEMENT_THEORY = SGP/SGP4

EPOCH          = 2026-01-29T19:38:32.136000
MEAN_MOTION    = 15.27347634
ECCENTRICITY   = .00106138
INCLINATION    = 82.5218
RA_OF_ASC_NODE = 156.6707
ARG_OF_PERICENTER = 310.9052
MEAN_ANOMALY   = 49.1266

EPHEMERIS_TYPE = 0
CLASSIFICATION_TYPE = U
NORAD_CAT_ID   = 19573
ELEMENT_SET_NO = 999
REV_AT_EPOCH   = 1347
BSTAR          = .47851383E-3
MEAN_MOTION_DOT = .12869E-3
MEAN_MOTION_DDOT = 0

CCSDS_OMM_VERS = 2.0
CREATION_DATE  = 
ORIGINATOR     = 

OBJECT_NAME    = SL-14 R/B
OBJECT_ID      = 1988-093B
CENTER_NAME    = EARTH
REF_FRAME      = TEME
TIME_SYSTEM    = UTC
MEAN_ELEMENT_THEORY = SGP/SGP4

EPOCH          = 2026-01-30T04:53:52.772064
MEAN_MOTION    = 14.85613504
ECCENTRICITY   = .00211885
INCLINATION    = 82.5287
RA_OF_ASC_NODE = 78.1821
ARG_OF_PERICENTER = 161.4780
MEAN_ANOMALY   = 261.8416

EPHEMERIS_TYPE = 0
CLASSIFICATION_TYPE = U
NORAD_CAT_ID   = 19574
ELEMENT_SET_NO = 999
REV_AT_EPOCH   = 99532
BSTAR          = .70813423E-4
MEAN_MOTION_DOT = .64E-5
MEAN_MOTION_DDOT = 0

CCSDS_OMM_VERS = 2.0
CREATION_DATE  = 
ORIGINATOR     = 

OBJECT_NAME    = SL-16 R/B
OBJECT_ID      = 1988-102B
CENTER_NAME    = EARTH
REF_FRAME      = TEME
TIME_SYSTEM    = UTC
MEAN_ELEMENT_THEORY = SGP/SGP4

EPOCH          = 2026-01-29T23:38:24.370656
MEAN_MOTION    = 14.16147078
ECCENTRICITY   = .00120263
INCLINATION    = 70.9973
RA_OF_ASC_NODE = 232.9324
ARG_OF_PERICENTER = 65.9286
MEAN_ANOMALY   = 294.3094

EPHEMERIS_TYPE = 0
CLASSIFICATION_TYPE = U
NORAD_CAT_ID   = 19650
ELEMENT_SET_NO = 999
REV_AT_EPOCH   = 92141
BSTAR          = -.7915517E-4
MEAN_MOTION_DOT = -.204E-5
MEAN_MOTION_DDOT = 0

CCSDS_OMM_VERS = 2.0
CREATION_DATE  = 
ORIGINATOR     = 

OBJECT_NAME    = INTERCOSMOS 24
OBJECT_ID      = 1989-080A
CENTER_NAME    = EARTH
REF_FRAME      = TEME
TIME_SYSTEM    = UTC
MEAN_ELEMENT_THEORY = SGP/SGP4

EPOCH          = 2026-01-30T04:48:58.528224
MEAN_MOTION    = 12.59506554
ECCENTRICITY   = .11885595
INCLINATION    = 82.6077
RA_OF_ASC_NODE = 129.4509
ARG_OF_PERICENTER = 22.1674
MEAN_ANOMALY   = 342.6662

EPHEMERIS_TYPE = 0
CLASSIFICATION_TYPE = U
NORAD_CAT_ID   = 20261
ELEMENT_SET_NO = 999
REV_AT_EPOCH   = 66195
BSTAR          = .17721813E-3
MEAN_MOTION_DOT = .621E-5
MEAN_MOTION_DDOT = 0

CCSDS_OMM_VERS = 2.0
CREATION_DATE  = 
ORIGINATOR     = 

OBJECT_NAME    = SL-14 R/B
OBJECT_ID      = 1989-080C
CENTER_NAME    = EARTH
REF_FRAME      = TEME
TIME_SYSTEM    = UTC
MEAN_ELEMENT_THEORY = SGP/SGP4

EPOCH          = 2026-01-29T21:47:21.731424
MEAN_MOTION    = 12.50449729
ECCENTRICITY   = .12294387
INCLINATION    = 82.5930
RA_OF_ASC_NODE = 198.0854
ARG_OF_PERICENTER = 273.4527
MEAN_ANOMALY   = 72.7053

EPHEMERIS_TYPE = 0
CLASSIFICATION_TYPE = U
NORAD_CAT_ID   = 20262
ELEMENT_SET_NO = 999
REV_AT_EPOCH   = 65530
BSTAR          = .12275563E-3
MEAN_MOTION_DOT = .404E-5
MEAN_MOTION_DDOT = 0

CCSDS_OMM_VERS = 2.0
CREATION_DATE  = 
ORIGINATOR     = 

OBJECT_NAME    = DELTA 1 R/B
OBJECT_ID      = 1989-089B
CENTER_NAME    = EARTH
REF_FRAME      = TEME
TIME_SYSTEM    = UTC
MEAN_ELEMENT_THEORY = SGP/SGP4

EPOCH          = 2026-01-30T04:48:55.339200
MEAN_MOTION    = 14.50628047
ECCENTRICITY   = .0067716
INCLINATION    = 97.0731
RA_OF_ASC_NODE = 243.7537
ARG_OF_PERICENTER = 243.8579
MEAN_ANOMALY   = 115.5643

EPHEMERIS_TYPE = 0
CLASSIFICATION_TYPE = U
NORAD_CAT_ID   = 20323
ELEMENT_SET_NO = 999
REV_AT_EPOCH   = 89015
BSTAR          = .16083825E-3
MEAN_MOTION_DOT = .614E-5
MEAN_MOTION_DDOT = 0

CCSDS_OMM_VERS = 2.0
CREATION_DATE  = 
ORIGINATOR     = 

OBJECT_NAME    = ARIANE 40 R/B
OBJECT_ID      = 1990-005H
CENTER_NAME    = EARTH
REF_FRAME      = TEME
TIME_SYSTEM    = UTC
MEAN_ELEMENT_THEORY = SGP/SGP4

EPOCH          = 2026-01-30T04:13:39.449856
MEAN_MOTION    = 14.39843070
ECCENTRICITY   = .0009354
INCLINATION    = 98.3166
RA_OF_ASC_NODE = 91.9691
ARG_OF_PERICENTER = 325.8683
MEAN_ANOMALY   = 34.1904

EPHEMERIS_TYPE = 0
CLASSIFICATION_TYPE = U
NORAD_CAT_ID   = 20443
ELEMENT_SET_NO = 999
REV_AT_EPOCH   = 88726
BSTAR          = .14553799E-3
MEAN_MOTION_DOT = .415E-5
MEAN_MOTION_DDOT = 0

