COSMOS 1933             
1 18958U 88020A   26030.22316817  .00005704  00000+0  28198-3 0  9996
2 18958  82.5142 288.9639 0004128 358.2272   1.8946 15.17642535 44391
SL-3 R/B                
1 19046U 88032B   26030.21244213  .00008365  00000+0  39477-3 0  9995
2 19046  97.5129  13.6324 0026677  12.5846 347.6049 15.19389203 46260
SL-16 R/B               
1 19120U 88039B   26030.29623993  .00000175  00000+0  10532-3 0  9991
2 19120  71.0151 149.7315 0020466  33.7742 326.4682 14.19609809952930
COSMOS 1953             
1 19210U 88050A   26030.18789388  .00012601  00000+0  46336-3 0  9991
2 19210  82.5074 196.9404 0010369 259.2480 100.7592 15.27714395 31904
SL-8 R/B                
1 19257U 88053B   26029.87130236  .00000343  00000+0  11976-3 0  9993
2 19257  74.0470 184.0104 0019938  11.0686 101.7503 14.38891245971018
COSMOS 1975             
1 19573U 88093A   26029.81842750  .00012869  00000+0  47851-3 0  9990
2 19573  82.5218 156.6707 0010613 310.9052  49.1266 15.27347634 13471
SL-14 R/B               
1 19574U 88093B   26030.20408301  .00000640  00000+0  70813-4 0  9995
2 19574  82.5287  78.1821 0021188 161.4780 261.8416 14.85613504995327
SL-16 R/B               
1 19650U 88102B   26029.98500429 -.00000204  00000+0 -79155-4 0  9994
2 19650  70.9973 232.9324 0012026  65.9286 294.3094 14.16147078921417
INTERCOSMOS 24          
1 20261U 89080A   26030.20067741  .00000621  00000+0  17722-3 0  9994
2 20261  82.6077 129.4509 1188559  22.1674 342.6662 12.59506554661950
SL-14 R/B               
1 20262U 89080C   26029.90789041  .00000404  00000+0  12276-3 0  9992
2 20262  82.5930 198.0854 1229438 273.4527  72.7053 12.50449729655301
DELTA 1 R/B             
1 20323U 89089B   26030.20064050  .00000614  00000+0  16084-3 0  9994
2 20323  97.0731 243.7537 0067716 243.8579 115.5643 14.50628047890150
ARIANE 40 R/B           
1 20443U 90005H   26030.17615104  .00000415  00000+0  14554-3 0  9994
2 20443  98.3166  91.9691 0009354 325.8683  34.1904 14.39843070887260
